     2.10           N: GPS NAV DATA                         RINEX VERSION / TYPE
teqc  2011Oct11     IGN-E (SPG)         20150127 16:00:39UTCPGM / RUN BY / DATE
Linux 2.4.21-27.ELsmp|Opteron|gcc -static|Linux x86_64|=+   COMMENT
                                                            END OF HEADER
21 15  1 27 16  0  0.0-4.101865924895D-04-4.206412995700D-12 0.000000000000D+00
    4.200000000000D+01-3.018750000000D+01 5.306649786263D-09-2.286824421679D+00
   -1.706182956696D-06 2.210213325452D-02 5.636364221573D-06 5.153620937347D+03
    2.304000000000D+05 3.091990947723D-07 1.835999844992D-01 5.587935447693D-08
    9.337059046216D-01 2.474375000000D+02-1.955052159244D+00-8.170339960145D-09
    3.278708138321D-10 1.000000000000D+00 1.829000000000D+03 0.000000000000D+00
    2.000000000000D+00 0.000000000000D+00-1.164153218269D-08 4.200000000000D+01
    2.277600000000D+05
24 15  1 27 16  0  0.0-4.246272146702D-05-5.684341886081D-13 0.000000000000D+00
    7.300000000000D+01 2.456250000000D+01 4.811628873114D-09-4.088620501741D-01
    1.126900315285D-06 2.960813930258D-03 4.118308424950D-06 5.153686351776D+03
    2.304000000000D+05 1.061707735062D-07-2.958905230074D+00 7.823109626770D-08
    9.549426957792D-01 2.962187500000D+02 2.611573003755D-01-8.437137211104D-09
   -1.753644451874D-10 1.000000000000D+00 1.829000000000D+03 0.000000000000D+00
    2.800000000000D+00 0.000000000000D+00 2.328306436539D-09 7.300000000000D+01
    2.295000000000D+05
